[{"OBJECT_NAME":"ONEWEB-0230","OBJECT_ID":"2021-045C","EPOCH":"2026-03-09T20:00:46.904544","MEAN_MOTION":13.15547465,"ECCENTRICITY":0.00014728,"INCLINATION":87.8939,"RA_OF_ASC_NODE":279.0451,"ARG_OF_PERICENTER":87.51,"MEAN_ANOMALY":272.6199,"EPHEMERIS_TYPE":0,"CLASSIFICATION_TYPE":"U","NORAD_CAT_ID":48769,"ELEMENT_SET_NO":999,"REV_AT_EPOCH":23160,"BSTAR":-0.00032642867,"MEAN_MOTION_DOT":-1.1e-6,"MEAN_MOTION_DDOT":0},{"OBJECT_NAME":"CZ-4C DEB","OBJECT_ID":"2009-072D","EPOCH":"2026-03-08T07:31:34.533696","MEAN_MOTION":13.46296443,"ECCENTRICITY":0.01568919,"INCLINATION":100.5128,"RA_OF_ASC_NODE":92.2361,"ARG_OF_PERICENTER":186.3002,"MEAN_ANOMALY":195.7608,"EPHEMERIS_TYPE":0,"CLASSIFICATION_TYPE":"U","NORAD_CAT_ID":38325,"ELEMENT_SET_NO":999,"REV_AT_EPOCH":62574,"BSTAR":4.6191617e-5,"MEAN_MOTION_DOT":-1.9e-7,"MEAN_MOTION_DDOT":0}]
